SILVERSAT               
1 66909U 98067XV  26058.39881014  .00152013  00000+0  13108-2 0  9991
2 66909  51.6259 117.4322 0005066  19.3067 340.8120 15.68246517 13572
ISS OBJECT XW           
1 66910U 98067XW  26058.56547060  .00106222  00000+0  10225-2 0  9990
2 66910  51.6258 117.0407 0004582  30.4087 329.7173 15.65703469 13598
ISS OBJECT XX           
1 66911U 98067XX  26058.41289843  .00187586  00000+0  14703-2 0  9994
2 66911  51.6229 116.7628 0006632  25.6109 334.5216 15.70425714 13577
ISS OBJECT XY           
1 66912U 98067XY  26058.54118508  .00070355  00000+0  79847-3 0  9994
2 66912  51.6275 118.3910 0002576  36.5071 323.6098 15.61698876 13560
ISS OBJECT XZ           
1 67683U 98067XZ  26058.54981403  .00034447  00000+0  58828-3 0  9990
2 67683  51.6314 122.1978 0009735 152.3590 207.7918 15.50929829  3211
GXIBA-1                 
1 67684U 98067YA  26058.47160865  .00067855  00000+0  10797-2 0  9995
2 67684  51.6305 122.4273 0011160 143.0590 217.1170 15.52586830  3202
CORAL                   
1 67685U 98067YB  26058.41854745  .00040910  00000+0  68987-3 0  9995
2 67685  51.6318 122.8225 0011654 147.7216 212.4489 15.51180735  3194
ISS OBJECT YC           
1 67686U 98067YC  26058.48029034  .00049428  00000+0  82192-3 0  9995
2 67686  51.6315 122.4856 0007655 116.6390 243.5385 15.51530870  3203
LEOPARD                 
1 67687U 98067YD  26058.67731057  .00034998  00000+0  59507-3 0  9992
2 67687  51.6315 121.5508 0007689 120.8640 239.3107 15.51065082  3157
ISS OBJECT YE           
1 67688U 98067YE  26058.41703609  .00043696  00000+0  73242-3 0  9994
2 67688  51.6320 122.8134 0007619 117.1331 243.0436 15.51362636  3110
CREW DRAGON 12          
1 67796U 26031A   26058.50986825  .00012441  00000+0  23882-3 0  9998
2 67796  51.6324 122.6808 0008329 139.0697 221.0918 15.48339371554496
