CCSDS_OMM_VERS = 2.0
CREATION_DATE  = 
ORIGINATOR     = 

OBJECT_NAME    = SILVERSAT
OBJECT_ID      = 1998-067XV
CENTER_NAME    = EARTH
REF_FRAME      = TEME
TIME_SYSTEM    = UTC
MEAN_ELEMENT_THEORY = SGP/SGP4

EPOCH          = 2026-02-27T09:34:17.196096
MEAN_MOTION    = 15.68246517
ECCENTRICITY   = .0005066
INCLINATION    = 51.6259
RA_OF_ASC_NODE = 117.4322
ARG_OF_PERICENTER = 19.3067
MEAN_ANOMALY   = 340.8120

EPHEMERIS_TYPE = 0
CLASSIFICATION_TYPE = U
NORAD_CAT_ID   = 66909
ELEMENT_SET_NO = 999
REV_AT_EPOCH   = 1357
BSTAR          = .13108E-2
MEAN_MOTION_DOT = .152013E-2
MEAN_MOTION_DDOT = 0

CCSDS_OMM_VERS = 2.0
CREATION_DATE  = 
ORIGINATOR     = 

OBJECT_NAME    = ISS OBJECT XW
OBJECT_ID      = 1998-067XW
CENTER_NAME    = EARTH
REF_FRAME      = TEME
TIME_SYSTEM    = UTC
MEAN_ELEMENT_THEORY = SGP/SGP4

EPOCH          = 2026-02-27T13:34:16.659840
MEAN_MOTION    = 15.65703469
ECCENTRICITY   = .0004582
INCLINATION    = 51.6258
RA_OF_ASC_NODE = 117.0407
ARG_OF_PERICENTER = 30.4087
MEAN_ANOMALY   = 329.7173

EPHEMERIS_TYPE = 0
CLASSIFICATION_TYPE = U
NORAD_CAT_ID   = 66910
ELEMENT_SET_NO = 999
REV_AT_EPOCH   = 1359
BSTAR          = .10225E-2
MEAN_MOTION_DOT = .106222E-2
MEAN_MOTION_DDOT = 0

CCSDS_OMM_VERS = 2.0
CREATION_DATE  = 
ORIGINATOR     = 

OBJECT_NAME    = ISS OBJECT XX
OBJECT_ID      = 1998-067XX
CENTER_NAME    = EARTH
REF_FRAME      = TEME
TIME_SYSTEM    = UTC
MEAN_ELEMENT_THEORY = SGP/SGP4

EPOCH          = 2026-02-27T09:54:34.424352
MEAN_MOTION    = 15.70425714
ECCENTRICITY   = .0006632
INCLINATION    = 51.6229
RA_OF_ASC_NODE = 116.7628
ARG_OF_PERICENTER = 25.6109
MEAN_ANOMALY   = 334.5216

EPHEMERIS_TYPE = 0
CLASSIFICATION_TYPE = U
NORAD_CAT_ID   = 66911
ELEMENT_SET_NO = 999
REV_AT_EPOCH   = 1357
BSTAR          = .14703E-2
MEAN_MOTION_DOT = .187586E-2
MEAN_MOTION_DDOT = 0

CCSDS_OMM_VERS = 2.0
CREATION_DATE  = 
ORIGINATOR     = 

OBJECT_NAME    = ISS OBJECT XY
OBJECT_ID      = 1998-067XY
CENTER_NAME    = EARTH
REF_FRAME      = TEME
TIME_SYSTEM    = UTC
MEAN_ELEMENT_THEORY = SGP/SGP4

EPOCH          = 2026-02-27T12:59:18.390912
MEAN_MOTION    = 15.61698876
ECCENTRICITY   = .0002576
INCLINATION    = 51.6275
RA_OF_ASC_NODE = 118.3910
ARG_OF_PERICENTER = 36.5071
MEAN_ANOMALY   = 323.6098

EPHEMERIS_TYPE = 0
CLASSIFICATION_TYPE = U
NORAD_CAT_ID   = 66912
ELEMENT_SET_NO = 999
REV_AT_EPOCH   = 1356
BSTAR          = .79847E-3
MEAN_MOTION_DOT = .70355E-3
MEAN_MOTION_DDOT = 0

CCSDS_OMM_VERS = 2.0
CREATION_DATE  = 
ORIGINATOR     = 

OBJECT_NAME    = ISS OBJECT XZ
OBJECT_ID      = 1998-067XZ
CENTER_NAME    = EARTH
REF_FRAME      = TEME
TIME_SYSTEM    = UTC
MEAN_ELEMENT_THEORY = SGP/SGP4

EPOCH          = 2026-02-27T13:11:43.932192
MEAN_MOTION    = 15.50929829
ECCENTRICITY   = .0009735
INCLINATION    = 51.6314
RA_OF_ASC_NODE = 122.1978
ARG_OF_PERICENTER = 152.3590
MEAN_ANOMALY   = 207.7918

EPHEMERIS_TYPE = 0
CLASSIFICATION_TYPE = U
NORAD_CAT_ID   = 67683
ELEMENT_SET_NO = 999
REV_AT_EPOCH   = 321
BSTAR          = .58828E-3
MEAN_MOTION_DOT = .34447E-3
MEAN_MOTION_DDOT = 0

CCSDS_OMM_VERS = 2.0
CREATION_DATE  = 
ORIGINATOR     = 

OBJECT_NAME    = GXIBA-1
OBJECT_ID      = 1998-067YA
CENTER_NAME    = EARTH
REF_FRAME      = TEME
TIME_SYSTEM    = UTC
MEAN_ELEMENT_THEORY = SGP/SGP4

EPOCH          = 2026-02-27T11:19:06.987360
MEAN_MOTION    = 15.52586830
ECCENTRICITY   = .001116
INCLINATION    = 51.6305
RA_OF_ASC_NODE = 122.4273
ARG_OF_PERICENTER = 143.0590
MEAN_ANOMALY   = 217.1170

EPHEMERIS_TYPE = 0
CLASSIFICATION_TYPE = U
NORAD_CAT_ID   = 67684
ELEMENT_SET_NO = 999
REV_AT_EPOCH   = 320
BSTAR          = .10797E-2
MEAN_MOTION_DOT = .67855E-3
MEAN_MOTION_DDOT = 0

CCSDS_OMM_VERS = 2.0
CREATION_DATE  = 
ORIGINATOR     = 

OBJECT_NAME    = CORAL
OBJECT_ID      = 1998-067YB
CENTER_NAME    = EARTH
REF_FRAME      = TEME
TIME_SYSTEM    = UTC
MEAN_ELEMENT_THEORY = SGP/SGP4

EPOCH          = 2026-02-27T10:02:42.499680
MEAN_MOTION    = 15.51180735
ECCENTRICITY   = .0011654
INCLINATION    = 51.6318
RA_OF_ASC_NODE = 122.8225
ARG_OF_PERICENTER = 147.7216
MEAN_ANOMALY   = 212.4489

EPHEMERIS_TYPE = 0
CLASSIFICATION_TYPE = U
NORAD_CAT_ID   = 67685
ELEMENT_SET_NO = 999
REV_AT_EPOCH   = 319
BSTAR          = .68987E-3
MEAN_MOTION_DOT = .4091E-3
MEAN_MOTION_DDOT = 0

CCSDS_OMM_VERS = 2.0
CREATION_DATE  = 
ORIGINATOR     = 

OBJECT_NAME    = ISS OBJECT YC
OBJECT_ID      = 1998-067YC
CENTER_NAME    = EARTH
REF_FRAME      = TEME
TIME_SYSTEM    = UTC
MEAN_ELEMENT_THEORY = SGP/SGP4

EPOCH          = 2026-02-27T11:31:37.085376
MEAN_MOTION    = 15.51530870
ECCENTRICITY   = .0007655
INCLINATION    = 51.6315
RA_OF_ASC_NODE = 122.4856
ARG_OF_PERICENTER = 116.6390
MEAN_ANOMALY   = 243.5385

EPHEMERIS_TYPE = 0
CLASSIFICATION_TYPE = U
NORAD_CAT_ID   = 67686
ELEMENT_SET_NO = 999
REV_AT_EPOCH   = 320
BSTAR          = .82192E-3
MEAN_MOTION_DOT = .49428E-3
MEAN_MOTION_DDOT = 0

CCSDS_OMM_VERS = 2.0
CREATION_DATE  = 
ORIGINATOR     = 

OBJECT_NAME    = LEOPARD
OBJECT_ID      = 1998-067YD
CENTER_NAME    = EARTH
REF_FRAME      = TEME
TIME_SYSTEM    = UTC
MEAN_ELEMENT_THEORY = SGP/SGP4

EPOCH          = 2026-02-27T16:15:19.633248
MEAN_MOTION    = 15.51065082
ECCENTRICITY   = .0007689
INCLINATION    = 51.6315
RA_OF_ASC_NODE = 121.5508
ARG_OF_PERICENTER = 120.8640
MEAN_ANOMALY   = 239.3107

EPHEMERIS_TYPE = 0
CLASSIFICATION_TYPE = U
NORAD_CAT_ID   = 67687
ELEMENT_SET_NO = 999
REV_AT_EPOCH   = 315
BSTAR          = .59507E-3
MEAN_MOTION_DOT = .34998E-3
MEAN_MOTION_DDOT = 0

CCSDS_OMM_VERS = 2.0
CREATION_DATE  = 
ORIGINATOR     = 

OBJECT_NAME    = ISS OBJECT YE
OBJECT_ID      = 1998-067YE
CENTER_NAME    = EARTH
REF_FRAME      = TEME
TIME_SYSTEM    = UTC
MEAN_ELEMENT_THEORY = SGP/SGP4

EPOCH          = 2026-02-27T10:00:31.918176
MEAN_MOTION    = 15.51362636
ECCENTRICITY   = .0007619
INCLINATION    = 51.6320
RA_OF_ASC_NODE = 122.8134
ARG_OF_PERICENTER = 117.1331
MEAN_ANOMALY   = 243.0436

EPHEMERIS_TYPE = 0
CLASSIFICATION_TYPE = U
NORAD_CAT_ID   = 67688
ELEMENT_SET_NO = 999
REV_AT_EPOCH   = 311
BSTAR          = .73242E-3
MEAN_MOTION_DOT = .43696E-3
MEAN_MOTION_DDOT = 0

CCSDS_OMM_VERS = 2.0
CREATION_DATE  = 
ORIGINATOR     = 

OBJECT_NAME    = CREW DRAGON 12
OBJECT_ID      = 2026-031A
CENTER_NAME    = EARTH
REF_FRAME      = TEME
TIME_SYSTEM    = UTC
MEAN_ELEMENT_THEORY = SGP/SGP4

EPOCH          = 2026-02-27T12:14:12.616800
MEAN_MOTION    = 15.48339371
ECCENTRICITY   = .0008329
INCLINATION    = 51.6324
RA_OF_ASC_NODE = 122.6808
ARG_OF_PERICENTER = 139.0697
MEAN_ANOMALY   = 221.0918

EPHEMERIS_TYPE = 0
CLASSIFICATION_TYPE = U
NORAD_CAT_ID   = 67796
ELEMENT_SET_NO = 999
REV_AT_EPOCH   = 55449
BSTAR          = .23882E-3
MEAN_MOTION_DOT = .12441E-3
MEAN_MOTION_DDOT = 0

